CCSDS_OMM_VERS = 2.0
CREATION_DATE  = 
ORIGINATOR     = 

OBJECT_NAME    = YOTSUBA-KULOVER
OBJECT_ID      = 1998-067XN
CENTER_NAME    = EARTH
REF_FRAME      = TEME
TIME_SYSTEM    = UTC
MEAN_ELEMENT_THEORY = SGP/SGP4

EPOCH          = 2026-02-24T11:13:20.466336
MEAN_MOTION    = 15.75337039
ECCENTRICITY   = .0005836
INCLINATION    = 51.6226
RA_OF_ASC_NODE = 125.5892
ARG_OF_PERICENTER = 356.4616
MEAN_ANOMALY   = 3.6342

EPHEMERIS_TYPE = 0
CLASSIFICATION_TYPE = U
NORAD_CAT_ID   = 65941
ELEMENT_SET_NO = 999
REV_AT_EPOCH   = 2141
BSTAR          = .94563491E-3
MEAN_MOTION_DOT = .147873E-2
MEAN_MOTION_DDOT = 0

CCSDS_OMM_VERS = 2.0
CREATION_DATE  = 
ORIGINATOR     = 

OBJECT_NAME    = BOTAN
OBJECT_ID      = 1998-067XP
CENTER_NAME    = EARTH
REF_FRAME      = TEME
TIME_SYSTEM    = UTC
MEAN_ELEMENT_THEORY = SGP/SGP4

EPOCH          = 2026-02-24T12:55:04.304928
MEAN_MOTION    = 16.00751802
ECCENTRICITY   = .00097592
INCLINATION    = 51.6119
RA_OF_ASC_NODE = 119.2030
ARG_OF_PERICENTER = 14.1330
MEAN_ANOMALY   = 345.9951

EPHEMERIS_TYPE = 0
CLASSIFICATION_TYPE = U
NORAD_CAT_ID   = 65942
ELEMENT_SET_NO = 999
REV_AT_EPOCH   = 2150
BSTAR          = .14996666E-2
MEAN_MOTION_DOT = .823166E-2
MEAN_MOTION_DDOT = .33098806E-3

CCSDS_OMM_VERS = 2.0
CREATION_DATE  = 
ORIGINATOR     = 

OBJECT_NAME    = E-KAGAKU-1
OBJECT_ID      = 1998-067XQ
CENTER_NAME    = EARTH
REF_FRAME      = TEME
TIME_SYSTEM    = UTC
MEAN_ELEMENT_THEORY = SGP/SGP4

EPOCH          = 2026-02-24T11:16:36.442272
MEAN_MOTION    = 15.75143976
ECCENTRICITY   = .00060531
INCLINATION    = 51.6247
RA_OF_ASC_NODE = 125.6186
ARG_OF_PERICENTER = 5.4532
MEAN_ANOMALY   = 354.6532

EPHEMERIS_TYPE = 0
CLASSIFICATION_TYPE = U
NORAD_CAT_ID   = 65943
ELEMENT_SET_NO = 999
REV_AT_EPOCH   = 2141
BSTAR          = .9336806E-3
MEAN_MOTION_DOT = .144724E-2
MEAN_MOTION_DDOT = 0

CCSDS_OMM_VERS = 2.0
CREATION_DATE  = 
ORIGINATOR     = 

OBJECT_NAME    = HRC MONOBLOCK CAMERA
OBJECT_ID      = 1998-067XR
CENTER_NAME    = EARTH
REF_FRAME      = TEME
TIME_SYSTEM    = UTC
MEAN_ELEMENT_THEORY = SGP/SGP4

EPOCH          = 2026-02-24T10:50:48.626880
MEAN_MOTION    = 15.60703861
ECCENTRICITY   = .00029302
INCLINATION    = 51.6276
RA_OF_ASC_NODE = 132.2644
ARG_OF_PERICENTER = 39.4892
MEAN_ANOMALY   = 320.6315

EPHEMERIS_TYPE = 0
CLASSIFICATION_TYPE = U
NORAD_CAT_ID   = 66052
ELEMENT_SET_NO = 999
REV_AT_EPOCH   = 2032
BSTAR          = .52279023E-3
MEAN_MOTION_DOT = .43997E-3
MEAN_MOTION_DDOT = 0

CCSDS_OMM_VERS = 2.0
CREATION_DATE  = 
ORIGINATOR     = 

OBJECT_NAME    = HTV-X1
OBJECT_ID      = 2025-241A
CENTER_NAME    = EARTH
REF_FRAME      = TEME
TIME_SYSTEM    = UTC
MEAN_ELEMENT_THEORY = SGP/SGP4

EPOCH          = 2026-02-24T12:58:47.876160
MEAN_MOTION    = 15.48264633
ECCENTRICITY   = .00083509
INCLINATION    = 51.6319
RA_OF_ASC_NODE = 137.3540
ARG_OF_PERICENTER = 128.7945
MEAN_ANOMALY   = 231.3790

EPHEMERIS_TYPE = 0
CLASSIFICATION_TYPE = U
NORAD_CAT_ID   = 66174
ELEMENT_SET_NO = 999
REV_AT_EPOCH   = 51
BSTAR          = .20315178E-3
MEAN_MOTION_DOT = .10485E-3
MEAN_MOTION_DDOT = 0

CCSDS_OMM_VERS = 2.0
CREATION_DATE  = 
ORIGINATOR     = 

OBJECT_NAME    = SZ-21 MODULE
OBJECT_ID      = 2025-246C
CENTER_NAME    = EARTH
REF_FRAME      = TEME
TIME_SYSTEM    = UTC
MEAN_ELEMENT_THEORY = SGP/SGP4

EPOCH          = 2026-02-24T15:13:34.084128
MEAN_MOTION    = 15.67459046
ECCENTRICITY   = .00014834
INCLINATION    = 41.4748
RA_OF_ASC_NODE = 283.6611
ARG_OF_PERICENTER = 290.2519
MEAN_ANOMALY   = 69.8163

EPHEMERIS_TYPE = 0
CLASSIFICATION_TYPE = U
NORAD_CAT_ID   = 66515
ELEMENT_SET_NO = 999
REV_AT_EPOCH   = 1602
BSTAR          = .29807143E-3
MEAN_MOTION_DOT = .33057E-3
MEAN_MOTION_DDOT = 0

CCSDS_OMM_VERS = 2.0
CREATION_DATE  = 
ORIGINATOR     = 

OBJECT_NAME    = SHENZHOU-22
OBJECT_ID      = 2025-272A
CENTER_NAME    = EARTH
REF_FRAME      = TEME
TIME_SYSTEM    = UTC
MEAN_ELEMENT_THEORY = SGP/SGP4

EPOCH          = 2026-02-24T08:07:25.889376
MEAN_MOTION    = 15.60074012
ECCENTRICITY   = .00054742
INCLINATION    = 41.4667
RA_OF_ASC_NODE = 289.3617
ARG_OF_PERICENTER = 185.8105
MEAN_ANOMALY   = 174.2671

EPHEMERIS_TYPE = 0
CLASSIFICATION_TYPE = U
NORAD_CAT_ID   = 66645
ELEMENT_SET_NO = 999
REV_AT_EPOCH   = 26764
BSTAR          = .21704682E-3
MEAN_MOTION_DOT = .17817E-3
MEAN_MOTION_DDOT = 0

CCSDS_OMM_VERS = 2.0
CREATION_DATE  = 
ORIGINATOR     = 

OBJECT_NAME    = SOYUZ-MS 28
OBJECT_ID      = 2025-275A
CENTER_NAME    = EARTH
REF_FRAME      = TEME
TIME_SYSTEM    = UTC
MEAN_ELEMENT_THEORY = SGP/SGP4

EPOCH          = 2026-02-24T12:58:47.876160
MEAN_MOTION    = 15.48264633
ECCENTRICITY   = .00083509
INCLINATION    = 51.6319
RA_OF_ASC_NODE = 137.3540
ARG_OF_PERICENTER = 128.7945
MEAN_ANOMALY   = 231.3790

EPHEMERIS_TYPE = 0
CLASSIFICATION_TYPE = U
NORAD_CAT_ID   = 66664
ELEMENT_SET_NO = 999
REV_AT_EPOCH   = 128
BSTAR          = .20315178E-3
MEAN_MOTION_DOT = .10485E-3
MEAN_MOTION_DDOT = 0

CCSDS_OMM_VERS = 2.0
CREATION_DATE  = 
ORIGINATOR     = 

OBJECT_NAME    = DUPLEX
OBJECT_ID      = 1998-067XS
CENTER_NAME    = EARTH
REF_FRAME      = TEME
TIME_SYSTEM    = UTC
MEAN_ELEMENT_THEORY = SGP/SGP4

EPOCH          = 2026-02-24T11:34:08.588640
MEAN_MOTION    = 15.55270446
ECCENTRICITY   = .00017484
INCLINATION    = 51.6292
RA_OF_ASC_NODE = 135.4660
ARG_OF_PERICENTER = 74.7440
MEAN_ANOMALY   = 285.3744

EPHEMERIS_TYPE = 0
CLASSIFICATION_TYPE = U
NORAD_CAT_ID   = 66906
ELEMENT_SET_NO = 999
REV_AT_EPOCH   = 1307
BSTAR          = .46667234E-3
MEAN_MOTION_DOT = .31856E-3
MEAN_MOTION_DDOT = 0

CCSDS_OMM_VERS = 2.0
CREATION_DATE  = 
ORIGINATOR     = 

OBJECT_NAME    = ISS OBJECT XT
OBJECT_ID      = 1998-067XT
CENTER_NAME    = EARTH
REF_FRAME      = TEME
TIME_SYSTEM    = UTC
MEAN_ELEMENT_THEORY = SGP/SGP4

EPOCH          = 2026-02-24T09:10:38.433792
MEAN_MOTION    = 15.65249808
ECCENTRICITY   = .00038526
INCLINATION    = 51.6254
RA_OF_ASC_NODE = 133.2936
ARG_OF_PERICENTER = 5.2885
MEAN_ANOMALY   = 354.8151

EPHEMERIS_TYPE = 0
CLASSIFICATION_TYPE = U
NORAD_CAT_ID   = 66907
ELEMENT_SET_NO = 999
REV_AT_EPOCH   = 1309
BSTAR          = .11134675E-2
MEAN_MOTION_DOT = .113727E-2
MEAN_MOTION_DDOT = 0

CCSDS_OMM_VERS = 2.0
CREATION_DATE  = 
ORIGINATOR     = 

OBJECT_NAME    = ISS OBJECT XU
OBJECT_ID      = 1998-067XU
CENTER_NAME    = EARTH
REF_FRAME      = TEME
TIME_SYSTEM    = UTC
MEAN_ELEMENT_THEORY = SGP/SGP4

EPOCH          = 2026-02-24T06:05:17.052576
MEAN_MOTION    = 15.65299119
ECCENTRICITY   = .0003914
INCLINATION    = 51.6250
RA_OF_ASC_NODE = 133.9315
ARG_OF_PERICENTER = 8.4064
MEAN_ANOMALY   = 351.6996

EPHEMERIS_TYPE = 0
CLASSIFICATION_TYPE = U
NORAD_CAT_ID   = 66908
ELEMENT_SET_NO = 999
REV_AT_EPOCH   = 1307
BSTAR          = .11696E-2
MEAN_MOTION_DOT = .119816E-2
MEAN_MOTION_DDOT = 0

CCSDS_OMM_VERS = 2.0
CREATION_DATE  = 
ORIGINATOR     = 

OBJECT_NAME    = SILVERSAT
OBJECT_ID      = 1998-067XV
CENTER_NAME    = EARTH
REF_FRAME      = TEME
TIME_SYSTEM    = UTC
MEAN_ELEMENT_THEORY = SGP/SGP4

EPOCH          = 2026-02-24T14:15:40.680576
MEAN_MOTION    = 15.67391617
ECCENTRICITY   = .00047471
INCLINATION    = 51.6251
RA_OF_ASC_NODE = 131.7052
ARG_OF_PERICENTER = 4.5050
MEAN_ANOMALY   = 355.5988

EPHEMERIS_TYPE = 0
CLASSIFICATION_TYPE = U
NORAD_CAT_ID   = 66909
ELEMENT_SET_NO = 999
REV_AT_EPOCH   = 1313
BSTAR          = .11567536E-2
MEAN_MOTION_DOT = .129109E-2
MEAN_MOTION_DDOT = 0

