YOTSUBA-KULOVER         
1 65941U 98067XN  26055.46759799  .00147873  00000+0  94563-3 0  9998
2 65941  51.6226 125.5892 0005836 356.4616   3.6342 15.75337039 21413
BOTAN                   
1 65942U 98067XP  26055.53824427  .00823166  33099-3  14997-2 0  9994
2 65942  51.6119 119.2030 0009759  14.1330 345.9951 16.00751802 21503
E-KAGAKU-1              
1 65943U 98067XQ  26055.46986623  .00144724  00000+0  93368-3 0  9992
2 65943  51.6247 125.6186 0006053   5.4532 354.6532 15.75143976 21410
HRC MONOBLOCK CAMERA    
1 66052U 98067XR  26055.45195170  .00043997  00000+0  52279-3 0  9998
2 66052  51.6276 132.2644 0002930  39.4892 320.6315 15.60703861 20323
HTV-X1                  
1 66174U 25241A   26055.54083190  .00010485  00000+0  20315-3 0  9997
2 66174  51.6319 137.3540 0008350 128.7945 231.3790 15.48264633   519
SZ-21 MODULE            
1 66515U 25246C   26055.63442227  .00033057  00000+0  29807-3 0  9996
2 66515  41.4748 283.6611 0001483 290.2519  69.8163 15.67459046 16023
SHENZHOU-22             
1 66645U 25272A   26055.33849409  .00017817  00000+0  21705-3 0  9994
2 66645  41.4667 289.3617 0005474 185.8105 174.2671 15.60074012267640
SOYUZ-MS 28             
1 66664U 25275A   26055.54083190  .00010485  00000+0  20315-3 0  9998
2 66664  51.6319 137.3540 0008350 128.7945 231.3790 15.48264633  1288
DUPLEX                  
1 66906U 98067XS  26055.48204385  .00031856  00000+0  46667-3 0  9993
2 66906  51.6292 135.4660 0001748  74.7440 285.3744 15.55270446 13078
ISS OBJECT XT           
1 66907U 98067XT  26055.38238928  .00113727  00000+0  11135-2 0  9992
2 66907  51.6254 133.2936 0003852   5.2885 354.8151 15.65249808 13094
ISS OBJECT XU           
1 66908U 98067XU  26055.25366959  .00119816  00000+0  11696-2 0  9992
2 66908  51.6250 133.9315 0003914   8.4064 351.6996 15.65299119 13072
SILVERSAT               
1 66909U 98067XV  26055.59422084  .00129109  00000+0  11568-2 0  9996
2 66909  51.6251 131.7052 0004747   4.5050 355.5988 15.67391617 13134
